OBJECT_NAME,OBJECT_ID,EPOCH,MEAN_MOTION,ECCENTRICITY,INCLINATION,RA_OF_ASC_NODE,ARG_OF_PERICENTER,MEAN_ANOMALY,EPHEMERIS_TYPE,CLASSIFICATION_TYPE,NORAD_CAT_ID,ELEMENT_SET_NO,REV_AT_EPOCH,BSTAR,MEAN_MOTION_DOT,MEAN_MOTION_DDOT
LEMUR-2-ARIANNA,2025-009CU,2026-06-09T16:45:48.344544,15.02374034,.00033785,97.6889,242.1421,137.4935,222.6552,0,U,62699,999,7643,.60833553E-3,.7996E-4,0
LEMUR-2-ALISIA,2025-009DB,2026-06-09T19:27:49.951584,15.02665709,.00011487,97.6967,243.0312,188.9729,171.1475,0,U,62706,999,9905,.5577332E-3,.7381E-4,0
LEMUR-2-ROUNDTRIPPER,2025-009DG,2026-06-09T18:34:37.963200,15.03667489,.00045453,97.7246,243.4640,155.1713,204.9732,0,U,62711,999,7651,.63472975E-3,.8638E-4,0
LEMUR-2-MYNAMEISJEFF,2025-009DH,2026-06-09T18:32:24.948672,15.03681212,.00027749,97.7295,243.8390,181.5838,178.5379,0,U,62712,999,7651,.60570879E-3,.8242E-4,0
LEMUR-2-LEIA-PHILIP,2025-052AN,2026-06-09T15:38:34.813248,14.97296809,.00020453,97.6847,52.7292,240.9218,119.1799,0,U,63246,999,6754,.18203018E-3,.2053E-4,0
LEMUR-2-LIA-MARTIN,2025-052AQ,2026-06-09T15:49:14.117088,14.97743928,.00024248,97.6913,53.2000,168.6014,191.5264,0,U,63248,999,6755,.41862629E-3,.4853E-4,0
LEMUR-2-DELOITTE-1,2025-052BB,2026-06-09T16:49:59.343456,14.97545477,.00026317,97.6922,53.5705,112.8144,247.3356,0,U,63259,999,6757,.30689202E-3,.3524E-4,0
LEMUR-2-EMERSONROSE,2025-052BD,2026-06-09T16:24:52.539552,14.99029621,.00023192,97.6904,54.0982,69.3569,290.7902,0,U,63261,999,6761,.25928705E-3,.3085E-4,0
LEMUR-2-MARACHE-FRAN,2025-052BE,2026-06-09T15:56:37.271328,15.00022999,.00061293,97.6951,54.3784,47.5337,312.6404,0,U,63262,999,6763,.44165408E-3,.5439E-4,0
LEMUR-2-THEFALCONER,2025-052BG,2026-06-09T15:50:15.524160,14.97342202,.00034982,97.6882,53.1581,56.7559,303.3998,0,U,63264,999,6756,.33403503E-3,.3821E-4,0
LEMUR-2-UNTITLED-SC,2025-061A,2026-06-09T17:59:44.275200,15.13419984,.00170894,97.5629,136.1659,293.0031,66.9397,0,U,63351,999,6646,.2082685E-3,.3665E-4,0
LEMUR-2-ESPERANZA,2025-061B,2026-06-09T17:27:28.340640,15.13514421,.00165979,97.5637,136.2356,292.5571,67.3903,0,U,63352,999,6646,.17768488E-3,.3125E-4,0
LEMUR-2-KREMPEL-BRO2,2025-061C,2026-06-09T16:34:13.972800,15.13947723,.00175249,97.5684,136.7225,284.1881,75.7403,0,U,63353,999,6647,.20477578E-3,.3657E-4,0
LEMUR-2-THERMORAPTOR,2025-061D,2026-06-09T16:08:58.365600,15.14027273,.00171715,97.5690,136.7793,283.1528,76.7788,0,U,63354,999,6647,.21322499E-3,.3819E-4,0
LEMUR-2-NEUROSPICY,2025-061E,2026-06-09T15:29:00.045888,15.14141087,.0015017,97.5615,136.3839,287.5932,72.3659,0,U,63355,999,6647,.17437646E-3,.3119E-4,0
LEMUR-2-TILLINFINITY,2025-061F,2026-06-09T16:23:58.504128,15.14728125,.00162456,97.5602,136.7070,274.0206,85.9168,0,U,63356,999,6650,.21288074E-3,.3889E-4,0
LEMUR-2-KREMPEL-BRO1,2025-061G,2026-06-09T17:19:31.434240,15.14534146,.00168163,97.5602,136.6636,275.1559,84.7753,0,U,63357,999,6650,.17780246E-3,.3219E-4,0
LEMUR-2-LANGER2SPACE,2025-061H,2026-06-08T21:18:29.459808,15.14224922,.00149781,97.5608,135.6518,288.5876,71.3728,0,U,63358,999,6636,.22276776E-3,.4013E-4,0
LEMUR-2-BALTO,2025-052BH,2026-06-09T15:34:26.007168,15.00004277,.00066957,97.6886,54.3469,76.6519,283.5451,0,U,63395,999,6763,.43167341E-3,.5313E-4,0
LEMUR-2-KRISH,2025-135AK,2026-06-09T14:00:52.031520,14.96133280,.00013154,97.7722,275.5140,107.9724,252.1641,0,U,64561,999,5278,.40443873E-3,.4494E-4,0
LEMUR-2-HUBBLE-4,2025-135AP,2026-06-09T13:32:08.798208,14.93175823,.00015071,97.7690,274.5631,351.8083,8.3112,0,U,64565,999,5273,.1155261E-3,.115E-4,0
LEMUR-2-SEJONG-2,2025-135BL,2026-06-09T22:49:03.197280,14.96644795,.00044282,97.7685,276.0222,12.4596,347.6734,0,U,64586,999,5286,.34475447E-3,.3874E-4,0
LEMUR-2-HUBBLE-5,2025-135BT,2026-06-09T14:09:20.496384,14.94112342,.00056789,97.7710,275.2099,19.4423,340.7012,0,U,64840,999,5277,.17274497E-3,.179E-4,0
LEMUR-2-KARENDARRELL,2025-135BU,2026-06-09T13:55:49.644480,15.00000317,.00091642,97.7668,276.8027,231.6343,128.4057,0,U,64841,999,5287,.57092257E-3,.7048E-4,0
LEMUR-2-LUCILLE-ROSE,2025-135BV,2026-06-09T06:54:08.182944,15.00053411,.00106985,97.7767,276.5201,313.8437,46.1901,0,U,65403,999,4745,.48608724E-3,.6001E-4,0
LEMUR-2-AFFIE-WAUWIE,2025-248C,2026-06-09T06:29:53.901600,15.26913101,.00084766,45.3882,157.8710,30.7029,329.4355,0,U,66295,999,3338,.44417572E-3,.11685E-3,0
LEMUR-2-DEANANDMAEVE,2025-276N,2026-06-09T17:49:13.295136,15.19641470,.00064084,97.4212,234.3421,38.8142,321.3552,0,U,66678,999,2928,.31133151E-3,.6573E-4,0
LEMUR-2-STAS-GORBUK,2025-276W,2026-06-09T16:32:49.738848,15.19300819,.00058527,97.4246,234.3455,39.1592,321.0065,0,U,66686,999,2927,.26796068E-3,.5591E-4,0
LEMUR-2-TEODOR,2025-276DG,2026-06-09T17:56:02.037984,15.20969486,.00018936,97.4149,234.6293,122.6307,237.5112,0,U,66768,999,2931,.26238377E-3,.5745E-4,0
