LEMUR-2-ARIANNA         
1 62699U 25009CU  26160.69847621  .00007996  00000+0  60834-3 0  9990
2 62699  97.6889 242.1421 0003378 137.4935 222.6552 15.02374034 76433
LEMUR-2-ALISIA          
1 62706U 25009DB  26160.81099481  .00007381  00000+0  55773-3 0  9990
2 62706  97.6967 243.0312 0001148 188.9729 171.1475 15.02665709 99050
LEMUR-2-ROUNDTRIPPER    
1 62711U 25009DG  26160.77405050  .00008638  00000+0  63473-3 0  9996
2 62711  97.7246 243.4640 0004545 155.1713 204.9732 15.03667489 76513
LEMUR-2-MYNAMEISJEFF    
1 62712U 25009DH  26160.77251098  .00008242  00000+0  60571-3 0  9995
2 62712  97.7295 243.8390 0002774 181.5838 178.5379 15.03681212 76510
LEMUR-2-LEIA-PHILIP     
1 63246U 25052AN  26160.65179182  .00002053  00000+0  18203-3 0  9995
2 63246  97.6847  52.7292 0002045 240.9218 119.1799 14.97296809 67542
LEMUR-2-LIA-MARTIN      
1 63248U 25052AQ  26160.65919117  .00004853  00000+0  41863-3 0  9995
2 63248  97.6913  53.2000 0002424 168.6014 191.5264 14.97743928 67553
LEMUR-2-DELOITTE-1      
1 63259U 25052BB  26160.70138129  .00003524  00000+0  30689-3 0  9997
2 63259  97.6922  53.5705 0002631 112.8144 247.3356 14.97545477 67578
LEMUR-2-EMERSONROSE     
1 63261U 25052BD  26160.68394143  .00003085  00000+0  25929-3 0  9990
2 63261  97.6904  54.0982 0002319  69.3569 290.7902 14.99029621 67618
LEMUR-2-MARACHE-FRAN    
1 63262U 25052BE  26160.66432027  .00005439  00000+0  44165-3 0  9991
2 63262  97.6951  54.3784 0006129  47.5337 312.6404 15.00022999 67635
LEMUR-2-THEFALCONER     
1 63264U 25052BG  26160.65990190  .00003821  00000+0  33404-3 0  9999
2 63264  97.6882  53.1581 0003498  56.7559 303.3998 14.97342202 67560
LEMUR-2-UNTITLED-SC     
1 63351U 25061A   26160.74981800  .00003665  00000+0  20827-3 0  9995
2 63351  97.5629 136.1659 0017089 293.0031  66.9397 15.13419984 66469
LEMUR-2-ESPERANZA       
1 63352U 25061B   26160.72741135  .00003125  00000+0  17768-3 0  9990
2 63352  97.5637 136.2356 0016597 292.5571  67.3903 15.13514421 66460
LEMUR-2-KREMPEL-BRO2    
1 63353U 25061C   26160.69043950  .00003657  00000+0  20478-3 0  9999
2 63353  97.5684 136.7225 0017524 284.1881  75.7403 15.13947723 66479
LEMUR-2-THERMORAPTOR    
1 63354U 25061D   26160.67289775  .00003819  00000+0  21322-3 0  9994
2 63354  97.5690 136.7793 0017171 283.1528  76.7788 15.14027273 66479
LEMUR-2-NEUROSPICY      
1 63355U 25061E   26160.64513942  .00003119  00000+0  17438-3 0  9994
2 63355  97.5615 136.3839 0015017 287.5932  72.3659 15.14141087 66477
LEMUR-2-TILLINFINITY    
1 63356U 25061F   26160.68331602  .00003889  00000+0  21288-3 0  9992
2 63356  97.5602 136.7070 0016245 274.0206  85.9168 15.14728125 66507
LEMUR-2-KREMPEL-BRO1    
1 63357U 25061G   26160.72189160  .00003219  00000+0  17780-3 0  9997
2 63357  97.5602 136.6636 0016816 275.1559  84.7753 15.14534146 66507
LEMUR-2-LANGER2SPACE    
1 63358U 25061H   26159.88784097  .00004013  00000+0  22277-3 0  9993
2 63358  97.5608 135.6518 0014978 288.5876  71.3728 15.14224922 66365
LEMUR-2-BALTO           
1 63395U 25052BH  26160.64891212  .00005313  00000+0  43167-3 0  9993
2 63395  97.6886  54.3469 0006695  76.6519 283.5451 15.00004277 67639
LEMUR-2-KRISH           
1 64561U 25135AK  26160.58393555  .00004494  00000+0  40444-3 0  9995
2 64561  97.7722 275.5140 0001315 107.9724 252.1641 14.96133280 52782
LEMUR-2-HUBBLE-4        
1 64565U 25135AP  26160.56399072  .00001150  00000+0  11553-3 0  9992
2 64565  97.7690 274.5631 0001507 351.8083   8.3112 14.93175823 52730
LEMUR-2-SEJONG-2        
1 64586U 25135BL  26160.95073145  .00003874  00000+0  34475-3 0  9991
2 64586  97.7685 276.0222 0004428  12.4596 347.6734 14.96644795 52869
LEMUR-2-HUBBLE-5        
1 64840U 25135BT  26160.58982056  .00001790  00000+0  17274-3 0  9996
2 64840  97.7710 275.2099 0005678  19.4423 340.7012 14.94112342 52777
LEMUR-2-KARENDARRELL    
1 64841U 25135BU  26160.58043570  .00007048  00000+0  57092-3 0  9990
2 64841  97.7668 276.8027 0009164 231.6343 128.4057 15.00000317 52878
LEMUR-2-LUCILLE-ROSE    
1 65403U 25135BV  26160.28759471  .00006001  00000+0  48609-3 0  9998
2 65403  97.7767 276.5201 0010698 313.8437  46.1901 15.00053411 47450
LEMUR-2-AFFIE-WAUWIE    
1 66295U 25248C   26160.27076275  .00011685  00000+0  44418-3 0  9994
2 66295  45.3882 157.8710 0008476  30.7029 329.4355 15.26913101 33382
LEMUR-2-DEANANDMAEVE    
1 66678U 25276N   26160.74251499  .00006573  00000+0  31133-3 0  9995
2 66678  97.4212 234.3421 0006408  38.8142 321.3552 15.19641470 29283
LEMUR-2-STAS-GORBUK     
1 66686U 25276W   26160.68946457  .00005591  00000+0  26796-3 0  9990
2 66686  97.4246 234.3455 0005852  39.1592 321.0065 15.19300819 29275
LEMUR-2-TEODOR          
1 66768U 25276DG  26160.74724581  .00005745  00000+0  26238-3 0  9992
2 66768  97.4149 234.6293 0001893 122.6307 237.5112 15.20969486 29316
